IRIDIUM 136             
1 42962U 17061H   23325.16928578  .00000308  00000+0  10274-3 0  9996
2 42962  86.3988  57.6685 0001820 100.2734 259.8667 14.34221461320244
